{"spkid": "54431316", "covariance": {"labels": ["e", "q", "tp", "node", "peri", "i"], "elements": [{"units": null, "title": "eccentricity", "value": ".604110868411905", "name": "e", "sigma": 1.62556845193942e-07, "label": "e"}, {"label": "q", "name": "q", "sigma": 4.16860005367674e-07, "value": ".9882350546813073", "title": "perihelion distance", "units": "au"}, {"title": "time of perihelion passage", "value": "2459074.621998115344", "units": "TDB", "sigma": 0.000110126772768373, "name": "tp", "label": "tp"}, {"value": "6.993656083167413", "title": "longitude of the ascending node", "units": "deg", "sigma": 0.000151926308731218, "name": "om", "label": "node"}, {"name": "w", "sigma": 0.000162612995921749, "title": "argument of perihelion", "value": "270.4214282181753", "units": "deg", "label": "peri"}, {"label": "i", "units": "deg", "value": "2.934439257461488", "title": "inclination", "sigma": 2.56907004080451e-05, "name": "i"}], "data": [["2.642472791940728E-14", "-6.771689915969877E-14", "1.159317275908113E-11", "-3.581929345928692E-13", "7.800685871268007E-12", "1.010565034969815E-13"], ["-6.771689915969877E-14", "1.737722640751373E-13", "-3.077817054486871E-11", "1.008071606767884E-12", "-2.035535055773766E-11", "-2.837526147897039E-13"], ["1.159317275908113E-11", "-3.077817054486871E-11", "1.21279060803768E-8", "-1.043899972752477E-9", "6.3064985064317E-9", "2.72674075580274E-10"], ["-3.581929345928692E-13", "1.008071606767884E-12", "-1.043899972752477E-9", "2.308160328469329E-8", "-2.34109295581158E-8", "-2.821038393152815E-9"], ["7.800685871268007E-12", "-2.035535055773766E-11", "6.3064985064317E-9", "-2.34109295581158E-8", "2.644298644264684E-8", "2.912355113949264E-9"], ["1.010565034969815E-13", "-2.837526147897039E-13", "2.72674075580274E-10", "-2.821038393152815E-9", "2.912355113949264E-9", "6.600120874559295E-10"]], "epoch": "2459292.5"}, "elements": [{"title": "eccentricity", "value": ".601719925236893", "units": null, "name": "e", "sigma": "1.5946E-7", "label": "e"}, {"label": "a", "sigma": "3.8323E-8", "name": "a", "units": "au", "value": "2.502793798628626", "title": "semi-major axis"}, {"label": "q", "units": "au", "title": "perihelion distance", "value": ".9968129012344497", "name": "q", "sigma": "4.0439E-7"}, {"title": "inclination; angle with respect to x-y ecliptic plane", "value": "2.929029741340417", "units": "deg", "name": "i", "sigma": "2.5668E-5", "label": "i"}, {"units": "deg", "title": "longitude of the ascending node", "value": "6.761314064383828", "name": "om", "sigma": ".00015218", "label": "node"}, {"sigma": ".00016337", "name": "w", "value": "270.7580388489474", "title": "argument of perihelion", "units": "deg", "label": "peri"}, {"sigma": "1.7127E-5", "name": "ma", "units": "deg", "title": "mean anomaly", "value": "170.6377316399268", "label": "M"}, {"sigma": "7.7505E-5", "name": "tp", "value": "2460514.998198185361", "title": "time of perihelion passage", "units": "TDB", "label": "tp"}, {"label": "period", "name": "per", "sigma": "3.3217E-5", "units": "d", "value": "1446.225557979271", "title": "sidereal orbital period"}, {"sigma": "5.7173E-9", "name": "n", "title": "mean motion", "value": ".2489238265869174", "units": "deg/d", "label": "n"}, {"label": "Q", "sigma": "6.1383E-8", "name": "ad", "units": "au", "value": "4.008774696022802", "title": "aphelion distance"}], "epoch": "2461200.5"}